NORAD_CAT_ID,OBJECT_NAME,OBJECT_TYPE,EPOCH,MEAN_MOTION,ECCENTRICITY,INCLINATION,RA_OF_ASC_NODE,ARG_OF_PERICENTER,MEAN_ANOMALY,BSTAR,MEAN_MOTION_DOT,MEAN_MOTION_DDOT,TLE_LINE0,TLE_LINE1,TLE_LINE2,SEMIMAJOR_AXIS,PERIOD,APOGEE,PERIGEE,DECAYED
52835.0,STARLINK-4080,PAYLOAD,2023-10-10 13:34:43,15.08861287,0.0001683,53.2202,29.6372,102.2628,257.8553,0.00023208,3.41e-05,0.0,0 STARLINK-4080,1 52835U 22062F   23283.56578155  .00003410  00000-0  23208-3 0  9991,2 52835  53.2202  29.6372 0001683 102.2628 257.8553 15.08861287 72760,6917.815,95.436,540.845,538.516,0.0
52835.0,STARLINK-4080,PAYLOAD,2023-10-10 15:10:06,15.088647,0.000158,53.2203,29.3407,85.7778,274.3395,0.00014386,2.004e-05,0.0,0 STARLINK-4080,1 52835U 22062F   23283.63201615  .00002004  00000-0  14386-3 0  9998,2 52835  53.2203  29.3407 0001580  85.7778 274.3395 15.08864700 72776,6917.805,95.436,540.763,538.577,0.0
52835.0,STARLINK-4080,PAYLOAD,2023-10-11 13:25:31,15.08834606,0.0001355,53.2194,25.1809,90.3838,269.731,0.00012944,1.772e-05,0.0,0 STARLINK-4080,1 52835U 22062F   23284.55939368  .00001772  00000-0  12944-3 0  9992,2 52835  53.2194  25.1809 0001355  90.3838 269.7310 15.08834606 72917,6917.897,95.438,540.699,538.825,0.0
52835.0,STARLINK-4080,PAYLOAD,2023-10-12 13:16:17,15.08854251,0.0001487,53.2192,20.7183,94.6593,265.4569,3.5247e-05,2.73e-06,0.0,0 STARLINK-4080,1 52835U 22062F   23285.55298554  .00000273  00000-0  35247-4 0  9995,2 52835  53.2192  20.7183 0001487  94.6593 265.4569 15.08854251 73066,6917.837,95.437,540.731,538.673,0.0
52835.0,STARLINK-4080,PAYLOAD,2023-10-12 14:51:41,15.08851789,0.0001498,53.2188,20.4208,98.197,261.9192,0.00010025,1.308e-05,0.0,0 STARLINK-4080,1 52835U 22062F   23285.61922780  .00001308  00000-0  10025-3 0  9993,2 52835  53.2188  20.4208 0001498  98.1970 261.9192 15.08851789 73073,6917.844,95.437,540.746,538.673,0.0
52835.0,STARLINK-4080,PAYLOAD,2023-10-13 13:07:05,15.08839427,0.0001464,53.2195,16.2622,85.6563,274.4597,0.0001783,2.551e-05,0.0,0 STARLINK-4080,1 52835U 22062F   23286.54659618  .00002551  00000-0  17830-3 0  9995,2 52835  53.2195  16.2622 0001464  85.6563 274.4597 15.08839427 73215,6917.882,95.438,540.76,538.734,0.0
52835.0,STARLINK-4080,PAYLOAD,2023-10-14 09:47:06,15.08852117,0.0001441,53.2183,12.394,90.2697,269.846,0.0001935,2.794e-05,0.0,0 STARLINK-4080,1 52835U 22062F   23287.40770878  .00002794  00000-0  19350-3 0  9991,2 52835  53.2183  12.3940 0001441  90.2697 269.8460 15.08852117 73349,6917.843,95.437,540.705,538.711,0.0
52835.0,STARLINK-4080,PAYLOAD,2023-10-14 11:22:28,15.088544,0.0001518,53.2171,12.096,106.4098,253.7062,0.00022548,3.304e-05,0.0,0 STARLINK-4080,1 52835U 22062F   23287.47394579  .00003304  00000-0  22548-3 0  9999,2 52835  53.2171  12.0960 0001518 106.4098 253.7062 15.08854400 73353,6917.836,95.437,540.752,538.651,0.0
52835.0,STARLINK-4080,PAYLOAD,2023-10-15 04:51:44,15.08833839,0.0002112,53.2183,8.8288,93.1557,266.9676,-0.00011668,-2.144e-05,0.0,0 STARLINK-4080,1 52835U 22062F   23288.20259996 -.00002144  00000-0 -11668-3 0  9998,2 52835  53.2183   8.8288 0002112  93.1557 266.9676 15.08833839 73467,6917.899,95.438,541.225,538.303,0.0
52835.0,STARLINK-4080,PAYLOAD,2023-10-15 12:48:41,15.08827693,0.0001451,53.2187,7.3375,98.7533,261.3623,-1.8081e-05,-5.76e-06,0.0,0 STARLINK-4080,1 52835U 22062F   23288.53381027 -.00000576  00000-0 -18081-4 0  9999,2 52835  53.2187   7.3375 0001451  98.7533 261.3623 15.08827693 73510,6917.918,95.438,540.787,538.779,0.0
52835.0,STARLINK-4080,PAYLOAD,2023-10-15 14:24:04,15.08828051,0.0001469,53.2185,7.0396,105.4137,254.7017,3.5847e-06,-2.31e-06,0.0,0 STARLINK-4080,1 52835U 22062F   23288.60004946 -.00000231  00000-0  35847-5 0  9996,2 52835  53.2185   7.0396 0001469 105.4137 254.7017 15.08828051 73526,6917.917,95.438,540.798,538.766,0.0
52835.0,STARLINK-4080,PAYLOAD,2023-10-16 04:42:32,15.08837417,0.0001394,53.2189,4.3654,92.0006,268.1146,5.5264e-05,5.92e-06,0.0,0 STARLINK-4080,1 52835U 22062F   23289.19620564  .00000592  00000-0  55264-4 0  9994,2 52835  53.2189   4.3654 0001394  92.0006 268.1146 15.08837417 73618,6917.888,95.438,540.718,538.789,0.0
52835.0,STARLINK-4080,PAYLOAD,2023-10-16 12:39:26,15.08851675,0.0001459,53.2173,2.8791,101.988,258.1276,0.00016582,2.353e-05,0.0,0 STARLINK-4080,1 52835U 22062F   23289.52739553  .00002353  00000-0  16582-3 0  9996,2 52835  53.2173   2.8791 0001459 101.9880 258.1276 15.08851675 73668,6917.845,95.437,540.719,538.7,0.0
52835.0,STARLINK-4080,PAYLOAD,2023-10-17 12:30:14,15.08836264,0.0001486,53.2184,358.4199,88.8127,271.3036,0.00025981,3.849e-05,0.0,0 STARLINK-4080,1 52835U 22062F   23290.52100620  .00003849  00000-0  25981-3 0  9999,2 52835  53.2184 358.4199 0001486  88.8127 271.3036 15.08836264 73814,6917.892,95.438,540.785,538.729,0.0
52835.0,STARLINK-4080,PAYLOAD,2023-10-17 22:02:33,15.088377,0.0001446,53.2186,356.6345,107.9923,252.1227,0.00022062,3.225e-05,0.0,0 STARLINK-4080,1 52835U 22062F   23290.91844612  .00003225  00000-0  22062-3 0  9993,2 52835  53.2186 356.6345 0001446 107.9923 252.1227 15.08837700 73873,6917.887,95.438,540.753,538.752,0.0
52835.0,STARLINK-4080,PAYLOAD,2023-10-18 21:53:19,15.08851429,0.0001497,53.2183,352.1742,97.2629,262.8533,2.7669e-05,1.53e-06,0.0,0 STARLINK-4080,1 52835U 22062F   23291.91203701  .00000153  00000-0  27669-4 0  9998,2 52835  53.2183 352.1742 0001497  97.2629 262.8533 15.08851429 74022,6917.845,95.437,540.746,538.675,0.0
52835.0,STARLINK-4080,PAYLOAD,2023-10-19 04:14:52,15.0884286,0.0001553,53.219,350.9865,89.8812,270.2358,0.0001196,1.616e-05,0.0,0 STARLINK-4080,1 52835U 22062F   23292.17700179  .00001616  00000-0  11960-3 0  9999,2 52835  53.2190 350.9865 0001553  89.8812 270.2358 15.08842860 74067,6917.872,95.437,540.811,538.662,0.0
52835.0,STARLINK-4080,PAYLOAD,2023-10-19 10:36:25,15.08848033,0.0001495,53.219,349.7957,93.2531,266.8632,0.00018805,2.707e-05,0.0,0 STARLINK-4080,1 52835U 22062F   23292.44195663  .00002707  00000-0  18805-3 0  9992,2 52835  53.2190 349.7957 0001495  93.2531 266.8632 15.08848033 74106,6917.856,95.437,540.755,538.687,0.0
52835.0,STARLINK-4080,PAYLOAD,2023-10-20 04:05:40,15.0883916,0.0001633,53.218,346.5241,99.3189,260.7988,3.1984e-05,2.21e-06,0.0,0 STARLINK-4080,1 52835U 22062F   23293.17060446  .00000221  00000-0  31984-4 0  9996,2 52835  53.2180 346.5241 0001633  99.3189 260.7988 15.08839160 74216,6917.883,95.438,540.878,538.618,0.0
52835.0,STARLINK-4080,PAYLOAD,2023-10-20 08:51:49,15.0883649,0.0001577,53.2181,345.6321,103.2656,256.8512,3.9303e-07,-2.82e-06,0.0,0 STARLINK-4080,1 52835U 22062F   23293.36932658 -.00000282  00000-0  39303-6 0  9993,2 52835  53.2181 345.6321 0001577 103.2656 256.8512 15.08836490 74242,6917.891,95.438,540.847,538.665,0.0
52835.0,STARLINK-4080,PAYLOAD,2023-10-21 10:17:59,15.08843939,0.00015,53.2184,340.8774,94.9933,265.123,0.00010204,1.337e-05,0.0,0 STARLINK-4080,1 52835U 22062F   23294.42916272  .00001337  00000-0  10204-3 0  9992,2 52835  53.2184 340.8774 0001500  94.9933 265.1230 15.08843939 74408,6917.868,95.437,540.771,538.696,0.0
52835.0,STARLINK-4080,PAYLOAD,2023-10-21 19:50:18,15.08844545,0.0001483,53.2185,339.0937,107.908,252.2074,-6.9774e-05,-1.398e-05,0.0,0 STARLINK-4080,1 52835U 22062F   23294.82660446 -.00001398  00000-0 -69774-4 0  9991,2 52835  53.2185 339.0937 0001483 107.9080 252.2074 15.08844545 74461,6917.866,95.437,540.757,538.706,0.0
52835.0,STARLINK-4080,PAYLOAD,2023-10-22 10:08:47,15.08834656,0.0001477,53.2184,336.4163,98.9646,261.1514,0.0001243,1.691e-05,0.0,0 STARLINK-4080,1 52835U 22062F   23295.42277021  .00001691  00000-0  12430-3 0  9991,2 52835  53.2184 336.4163 0001477  98.9646 261.1514 15.08834656 74552,6917.897,95.438,540.783,538.74,0.0
52835.0,STARLINK-4080,PAYLOAD,2023-10-22 19:41:06,15.0883733,0.00015,53.219,334.6317,94.4194,265.6969,0.00013343,1.836e-05,0.0,0 STARLINK-4080,1 52835U 22062F   23295.82020998  .00001836  00000-0  13343-3 0  9999,2 52835  53.2190 334.6317 0001500  94.4194 265.6969 15.08837330 74618,6917.889,95.438,540.791,538.716,0.0
52835.0,STARLINK-4080,PAYLOAD,2023-10-23 09:59:35,15.08833983,0.0001519,53.2193,331.9552,93.0019,267.1147,7.4906e-06,-1.69e-06,0.0,0 STARLINK-4080,1 52835U 22062F   23296.41637741 -.00000169  00000-0  74906-5 0  9998,2 52835  53.2193 331.9552 0001519  93.0019 267.1147 15.08833983 74708,6917.899,95.438,540.815,538.713,0.0
52835.0,STARLINK-4080,PAYLOAD,2023-10-23 19:31:53,15.08841882,0.0001527,53.219,330.1707,91.3449,268.7718,-3.4757e-06,-3.43e-06,0.0,0 STARLINK-4080,1 52835U 22062F   23296.81381275 -.00000343  00000-0 -34757-5 0  9995,2 52835  53.2190 330.1707 0001527  91.3449 268.7718 15.08841882 74769,6917.875,95.437,540.796,538.683,0.0
52835.0,STARLINK-4080,PAYLOAD,2023-10-24 09:50:21,15.08843999,0.0001577,53.2187,327.4936,93.1995,266.9178,5.7944e-05,6.34e-06,0.0,0 STARLINK-4080,1 52835U 22062F   23297.40997159  .00000634  00000-0  57944-4 0  9998,2 52835  53.2187 327.4936 0001577  93.1995 266.9178 15.08843999 74850,6917.868,95.437,540.824,538.642,0.0
52835.0,STARLINK-4080,PAYLOAD,2023-10-25 08:05:45,15.08842276,0.0001597,53.2178,323.33,86.662,273.4554,0.00010435,1.373e-05,0.0,0 STARLINK-4080,1 52835U 22062F   23298.33733225  .00001373  00000-0  10435-3 0  9997,2 52835  53.2178 323.3300 0001597  86.6620 273.4554 15.08842276 74997,6917.873,95.437,540.843,538.634,0.0
52835.0,STARLINK-4080,PAYLOAD,2023-10-26 11:07:18,15.0884701,0.000167,53.2169,318.274,90.2734,269.8449,7.551e-05,9.14e-06,0.0,0 STARLINK-4080,1 52835U 22062F   23299.46340794  .00000914  00000-0  75510-4 0  9993,2 52835  53.2169 318.2740 0001670  90.2734 269.8449 15.08847010 75160,6917.859,95.437,540.879,538.569,0.0
52835.0,STARLINK-4080,PAYLOAD,2023-10-27 04:36:33,15.08822466,0.0001598,53.2162,315.0023,97.0089,263.1085,0.00038374,5.822e-05,0.0,0 STARLINK-4080,1 52835U 22062F   23300.19205523  .00005822  00000-0  38374-3 0  9995,2 52835  53.2162 315.0023 0001598  97.0089 263.1085 15.08822466 75272,6917.934,95.439,540.904,538.693,0.0
